OBJECT_NAME,OBJECT_ID,EPOCH,MEAN_MOTION,ECCENTRICITY,INCLINATION,RA_OF_ASC_NODE,ARG_OF_PERICENTER,MEAN_ANOMALY,EPHEMERIS_TYPE,CLASSIFICATION_TYPE,NORAD_CAT_ID,ELEMENT_SET_NO,REV_AT_EPOCH,BSTAR,MEAN_MOTION_DOT,MEAN_MOTION_DDOT
INNOSAT 3 (RS92S0),2025-155U,2026-06-15T13:30:02.607552,15.43724588,.00062424,97.4485,138.0196,155.2066,204.9483,0,U,64894,999,8071,.63807409E-3,.28811E-3,0
KNACKSAT-2,1998-067XZ,2026-06-15T13:21:42.060384,15.59850380,.00093159,51.6309,302.6773,207.8758,152.1737,0,U,67683,999,2002,.50083708E-3,.40813E-3,0
