INNOSAT 3 (RS92S0)      
1 64894U 25155U   26166.56253018  .00028811  00000+0  63807-3 0  9996
2 64894  97.4485 138.0196 0006242 155.2066 204.9483 15.43724588 80710
KNACKSAT-2              
1 67683U 98067XZ  26166.55673681  .00040813  00000+0  50084-3 0  9997
2 67683  51.6309 302.6773 0009315 207.8758 152.1737 15.59850380 20023
